KUIPER-00136            
1 65962U 25228R   25346.32696814  .00054287  00000+0  16334-2 0  9990
2 65962  51.8802  22.5265 0005623  11.4646 348.6467 15.33829149 10356
KUIPER-00137            
1 65963U 25228S   25347.25002315  .00028288  00000+0  80401-3 0  9990
2 65963  51.8797  18.1503 0006660  30.5938   7.5970 15.35926359  5250
KUIPER-00138            
1 65964U 25228T   25347.31222002  .00034157  00000+0  96718-3 0  9995
2 65964  51.8794  17.8859 0007997  30.1155 330.0290 15.35938028 10508
KUIPER-00140            
1 65965U 25228U   25347.32138112  .00089631  00000+0  25572-2 0  9991
2 65965  51.8806  17.9507 0008066  24.6052 335.5318 15.35255294 10504
KUIPER-00141            
1 65966U 25228V   25347.29355287  .00074234  00000+0  20411-2 0  9992
2 65966  51.8811  17.7639 0005952  18.3444 341.7756 15.36514277 10506
KUIPER-00146            
1 65967U 25228W   25347.30469920  .00071095  00000+0  20036-2 0  9990
2 65967  51.8815  17.8468 0007572  20.5374 339.5915 15.35754511 10507
KUIPER-00149            
1 65968U 25228X   25347.29110040  .00051818  00000+0  14532-2 0  9990
2 65968  51.8812  17.7518 0005459  18.4492 341.6692 15.36062313 10508
KUIPER-00154            
1 65969U 25228Y   25347.29545893  .00067329  00000+0  18849-2 0  9998
2 65969  51.8812  17.7764 0005901   9.8652 350.2449 15.35996894 10501
