<?xml version="1.0" encoding="UTF-8"?>
<ndm xmlns:xsi="http://www.w3.org/2001/XMLSchema-instance" xsi:noNamespaceSchemaLocation="https://sanaregistry.org/r/ndmxml_unqualified/ndmxml-2.0.0-master-2.0.xsd">
<omm id="CCSDS_OMM_VERS" version="2.0">
<header><CREATION_DATE/><ORIGINATOR/></header><body><segment><metadata><OBJECT_NAME>KUIPER-00136</OBJECT_NAME><OBJECT_ID>2025-228R</OBJECT_ID><CENTER_NAME>EARTH</CENTER_NAME><REF_FRAME>TEME</REF_FRAME><TIME_SYSTEM>UTC</TIME_SYSTEM><MEAN_ELEMENT_THEORY>SGP4</MEAN_ELEMENT_THEORY></metadata><data><meanElements><EPOCH>2025-12-12T07:50:50.047296</EPOCH><MEAN_MOTION>15.33829149</MEAN_MOTION><ECCENTRICITY>.00056238</ECCENTRICITY><INCLINATION>51.8802</INCLINATION><RA_OF_ASC_NODE>22.5265</RA_OF_ASC_NODE><ARG_OF_PERICENTER>11.4646</ARG_OF_PERICENTER><MEAN_ANOMALY>348.6467</MEAN_ANOMALY></meanElements><tleParameters><EPHEMERIS_TYPE>0</EPHEMERIS_TYPE><CLASSIFICATION_TYPE>U</CLASSIFICATION_TYPE><NORAD_CAT_ID>65962</NORAD_CAT_ID><ELEMENT_SET_NO>999</ELEMENT_SET_NO><REV_AT_EPOCH>1035</REV_AT_EPOCH><BSTAR>.16334197E-2</BSTAR><MEAN_MOTION_DOT>.54287E-3</MEAN_MOTION_DOT><MEAN_MOTION_DDOT>0</MEAN_MOTION_DDOT></tleParameters></data></segment></body></omm>
<omm id="CCSDS_OMM_VERS" version="2.0">
<header><CREATION_DATE/><ORIGINATOR/></header><body><segment><metadata><OBJECT_NAME>KUIPER-00137</OBJECT_NAME><OBJECT_ID>2025-228S</OBJECT_ID><CENTER_NAME>EARTH</CENTER_NAME><REF_FRAME>TEME</REF_FRAME><TIME_SYSTEM>UTC</TIME_SYSTEM><MEAN_ELEMENT_THEORY>SGP4</MEAN_ELEMENT_THEORY></metadata><data><meanElements><EPOCH>2025-12-13T06:00:02.000160</EPOCH><MEAN_MOTION>15.35926359</MEAN_MOTION><ECCENTRICITY>.00066603</ECCENTRICITY><INCLINATION>51.8797</INCLINATION><RA_OF_ASC_NODE>18.1503</RA_OF_ASC_NODE><ARG_OF_PERICENTER>30.5938</ARG_OF_PERICENTER><MEAN_ANOMALY>7.5970</MEAN_ANOMALY></meanElements><tleParameters><EPHEMERIS_TYPE>0</EPHEMERIS_TYPE><CLASSIFICATION_TYPE>U</CLASSIFICATION_TYPE><NORAD_CAT_ID>65963</NORAD_CAT_ID><ELEMENT_SET_NO>999</ELEMENT_SET_NO><REV_AT_EPOCH>525</REV_AT_EPOCH><BSTAR>.80400513E-3</BSTAR><MEAN_MOTION_DOT>.28288E-3</MEAN_MOTION_DOT><MEAN_MOTION_DDOT>0</MEAN_MOTION_DDOT></tleParameters></data></segment></body></omm>
<omm id="CCSDS_OMM_VERS" version="2.0">
<header><CREATION_DATE/><ORIGINATOR/></header><body><segment><metadata><OBJECT_NAME>KUIPER-00138</OBJECT_NAME><OBJECT_ID>2025-228T</OBJECT_ID><CENTER_NAME>EARTH</CENTER_NAME><REF_FRAME>TEME</REF_FRAME><TIME_SYSTEM>UTC</TIME_SYSTEM><MEAN_ELEMENT_THEORY>SGP4</MEAN_ELEMENT_THEORY></metadata><data><meanElements><EPOCH>2025-12-13T07:29:35.809728</EPOCH><MEAN_MOTION>15.35938028</MEAN_MOTION><ECCENTRICITY>.00079978</ECCENTRICITY><INCLINATION>51.8794</INCLINATION><RA_OF_ASC_NODE>17.8859</RA_OF_ASC_NODE><ARG_OF_PERICENTER>30.1155</ARG_OF_PERICENTER><MEAN_ANOMALY>330.0290</MEAN_ANOMALY></meanElements><tleParameters><EPHEMERIS_TYPE>0</EPHEMERIS_TYPE><CLASSIFICATION_TYPE>U</CLASSIFICATION_TYPE><NORAD_CAT_ID>65964</NORAD_CAT_ID><ELEMENT_SET_NO>999</ELEMENT_SET_NO><REV_AT_EPOCH>1050</REV_AT_EPOCH><BSTAR>.96718074E-3</BSTAR><MEAN_MOTION_DOT>.34157E-3</MEAN_MOTION_DOT><MEAN_MOTION_DDOT>0</MEAN_MOTION_DDOT></tleParameters></data></segment></body></omm>
<omm id="CCSDS_OMM_VERS" version="2.0">
<header><CREATION_DATE/><ORIGINATOR/></header><body><segment><metadata><OBJECT_NAME>KUIPER-00140</OBJECT_NAME><OBJECT_ID>2025-228U</OBJECT_ID><CENTER_NAME>EARTH</CENTER_NAME><REF_FRAME>TEME</REF_FRAME><TIME_SYSTEM>UTC</TIME_SYSTEM><MEAN_ELEMENT_THEORY>SGP4</MEAN_ELEMENT_THEORY></metadata><data><meanElements><EPOCH>2025-12-13T07:42:47.328768</EPOCH><MEAN_MOTION>15.35255294</MEAN_MOTION><ECCENTRICITY>.00080661</ECCENTRICITY><INCLINATION>51.8806</INCLINATION><RA_OF_ASC_NODE>17.9507</RA_OF_ASC_NODE><ARG_OF_PERICENTER>24.6052</ARG_OF_PERICENTER><MEAN_ANOMALY>335.5318</MEAN_ANOMALY></meanElements><tleParameters><EPHEMERIS_TYPE>0</EPHEMERIS_TYPE><CLASSIFICATION_TYPE>U</CLASSIFICATION_TYPE><NORAD_CAT_ID>65965</NORAD_CAT_ID><ELEMENT_SET_NO>999</ELEMENT_SET_NO><REV_AT_EPOCH>1050</REV_AT_EPOCH><BSTAR>.25572109E-2</BSTAR><MEAN_MOTION_DOT>.89631E-3</MEAN_MOTION_DOT><MEAN_MOTION_DDOT>0</MEAN_MOTION_DDOT></tleParameters></data></segment></body></omm>
<omm id="CCSDS_OMM_VERS" version="2.0">
<header><CREATION_DATE/><ORIGINATOR/></header><body><segment><metadata><OBJECT_NAME>KUIPER-00141</OBJECT_NAME><OBJECT_ID>2025-228V</OBJECT_ID><CENTER_NAME>EARTH</CENTER_NAME><REF_FRAME>TEME</REF_FRAME><TIME_SYSTEM>UTC</TIME_SYSTEM><MEAN_ELEMENT_THEORY>SGP4</MEAN_ELEMENT_THEORY></metadata><data><meanElements><EPOCH>2025-12-13T07:02:42.967968</EPOCH><MEAN_MOTION>15.36514277</MEAN_MOTION><ECCENTRICITY>.00059521</ECCENTRICITY><INCLINATION>51.8811</INCLINATION><RA_OF_ASC_NODE>17.7639</RA_OF_ASC_NODE><ARG_OF_PERICENTER>18.3444</ARG_OF_PERICENTER><MEAN_ANOMALY>341.7756</MEAN_ANOMALY></meanElements><tleParameters><EPHEMERIS_TYPE>0</EPHEMERIS_TYPE><CLASSIFICATION_TYPE>U</CLASSIFICATION_TYPE><NORAD_CAT_ID>65966</NORAD_CAT_ID><ELEMENT_SET_NO>999</ELEMENT_SET_NO><REV_AT_EPOCH>1050</REV_AT_EPOCH><BSTAR>.20410536E-2</BSTAR><MEAN_MOTION_DOT>.74234E-3</MEAN_MOTION_DOT><MEAN_MOTION_DDOT>0</MEAN_MOTION_DDOT></tleParameters></data></segment></body></omm>
<omm id="CCSDS_OMM_VERS" version="2.0">
<header><CREATION_DATE/><ORIGINATOR/></header><body><segment><metadata><OBJECT_NAME>KUIPER-00146</OBJECT_NAME><OBJECT_ID>2025-228W</OBJECT_ID><CENTER_NAME>EARTH</CENTER_NAME><REF_FRAME>TEME</REF_FRAME><TIME_SYSTEM>UTC</TIME_SYSTEM><MEAN_ELEMENT_THEORY>SGP4</MEAN_ELEMENT_THEORY></metadata><data><meanElements><EPOCH>2025-12-13T07:18:46.010880</EPOCH><MEAN_MOTION>15.35754511</MEAN_MOTION><ECCENTRICITY>.00075728</ECCENTRICITY><INCLINATION>51.8815</INCLINATION><RA_OF_ASC_NODE>17.8468</RA_OF_ASC_NODE><ARG_OF_PERICENTER>20.5374</ARG_OF_PERICENTER><MEAN_ANOMALY>339.5915</MEAN_ANOMALY></meanElements><tleParameters><EPHEMERIS_TYPE>0</EPHEMERIS_TYPE><CLASSIFICATION_TYPE>U</CLASSIFICATION_TYPE><NORAD_CAT_ID>65967</NORAD_CAT_ID><ELEMENT_SET_NO>999</ELEMENT_SET_NO><REV_AT_EPOCH>1050</REV_AT_EPOCH><BSTAR>.20035997E-2</BSTAR><MEAN_MOTION_DOT>.71095E-3</MEAN_MOTION_DOT><MEAN_MOTION_DDOT>0</MEAN_MOTION_DDOT></tleParameters></data></segment></body></omm>
<omm id="CCSDS_OMM_VERS" version="2.0">
<header><CREATION_DATE/><ORIGINATOR/></header><body><segment><metadata><OBJECT_NAME>KUIPER-00149</OBJECT_NAME><OBJECT_ID>2025-228X</OBJECT_ID><CENTER_NAME>EARTH</CENTER_NAME><REF_FRAME>TEME</REF_FRAME><TIME_SYSTEM>UTC</TIME_SYSTEM><MEAN_ELEMENT_THEORY>SGP4</MEAN_ELEMENT_THEORY></metadata><data><meanElements><EPOCH>2025-12-13T06:59:11.074560</EPOCH><MEAN_MOTION>15.36062313</MEAN_MOTION><ECCENTRICITY>.00054595</ECCENTRICITY><INCLINATION>51.8812</INCLINATION><RA_OF_ASC_NODE>17.7518</RA_OF_ASC_NODE><ARG_OF_PERICENTER>18.4492</ARG_OF_PERICENTER><MEAN_ANOMALY>341.6692</MEAN_ANOMALY></meanElements><tleParameters><EPHEMERIS_TYPE>0</EPHEMERIS_TYPE><CLASSIFICATION_TYPE>U</CLASSIFICATION_TYPE><NORAD_CAT_ID>65968</NORAD_CAT_ID><ELEMENT_SET_NO>999</ELEMENT_SET_NO><REV_AT_EPOCH>1050</REV_AT_EPOCH><BSTAR>.14531916E-2</BSTAR><MEAN_MOTION_DOT>.51818E-3</MEAN_MOTION_DOT><MEAN_MOTION_DDOT>0</MEAN_MOTION_DDOT></tleParameters></data></segment></body></omm>
<omm id="CCSDS_OMM_VERS" version="2.0">
<header><CREATION_DATE/><ORIGINATOR/></header><body><segment><metadata><OBJECT_NAME>KUIPER-00154</OBJECT_NAME><OBJECT_ID>2025-228Y</OBJECT_ID><CENTER_NAME>EARTH</CENTER_NAME><REF_FRAME>TEME</REF_FRAME><TIME_SYSTEM>UTC</TIME_SYSTEM><MEAN_ELEMENT_THEORY>SGP4</MEAN_ELEMENT_THEORY></metadata><data><meanElements><EPOCH>2025-12-13T07:05:27.651552</EPOCH><MEAN_MOTION>15.35996894</MEAN_MOTION><ECCENTRICITY>.0005901</ECCENTRICITY><INCLINATION>51.8812</INCLINATION><RA_OF_ASC_NODE>17.7764</RA_OF_ASC_NODE><ARG_OF_PERICENTER>9.8652</ARG_OF_PERICENTER><MEAN_ANOMALY>350.2449</MEAN_ANOMALY></meanElements><tleParameters><EPHEMERIS_TYPE>0</EPHEMERIS_TYPE><CLASSIFICATION_TYPE>U</CLASSIFICATION_TYPE><NORAD_CAT_ID>65969</NORAD_CAT_ID><ELEMENT_SET_NO>999</ELEMENT_SET_NO><REV_AT_EPOCH>1050</REV_AT_EPOCH><BSTAR>.18849216E-2</BSTAR><MEAN_MOTION_DOT>.67329E-3</MEAN_MOTION_DOT><MEAN_MOTION_DDOT>0</MEAN_MOTION_DDOT></tleParameters></data></segment></body></omm>

</ndm>
